CELESTIS-02             
1 25160U 98007D   22220.91123458 -.00000037  00000+0  41369-4 0  9996
2 25160 107.9884  12.3699 0061969  18.8117 142.8097 14.21638340270316
CELESTIS-03             
1 26034U 99070C   22221.51452567  .00016816  00000+0  77534-3 0  9994
2 26034  98.3115 232.8098 0008014 313.3885  46.6680 15.20322768229144
